[{"OBJECT_NAME":"IRIDIUM 134","OBJECT_ID":"2017-083F","EPOCH":"2026-03-09T21:58:07.186944","MEAN_MOTION":14.34217743,"ECCENTRICITY":0.00020775,"INCLINATION":86.4026,"RA_OF_ASC_NODE":3.549,"ARG_OF_PERICENTER":86.3687,"MEAN_ANOMALY":273.7747,"EPHEMERIS_TYPE":0,"CLASSIFICATION_TYPE":"U","NORAD_CAT_ID":43075,"ELEMENT_SET_NO":999,"REV_AT_EPOCH":42987,"BSTAR":2.4162884e-5,"MEAN_MOTION_DOT":8.7e-7,"MEAN_MOTION_DDOT":0},{"OBJECT_NAME":"FENGYUN 1C DEB","OBJECT_ID":"1999-025NR","EPOCH":"2026-03-09T22:39:54.001728","MEAN_MOTION":14.38071253,"ECCENTRICITY":0.00332148,"INCLINATION":98.2309,"RA_OF_ASC_NODE":86.6337,"ARG_OF_PERICENTER":52.3343,"MEAN_ANOMALY":14.8274,"EPHEMERIS_TYPE":0,"CLASSIFICATION_TYPE":"U","NORAD_CAT_ID":30040,"ELEMENT_SET_NO":999,"REV_AT_EPOCH":99181,"BSTAR":0.0017504243,"MEAN_MOTION_DOT":5.298e-5,"MEAN_MOTION_DDOT":0}]
